ORBCOMM FM24            
1 25478U 98053D   24333.54955653  .00004271  00000+0  14726-2 0  9993
2 25478  45.0053 139.7235 0001603 252.2702 107.7971 14.37052590368853
ORBCOMM FM25            
1 25479U 98053E   24333.51807463  .00004414  00000+0  15205-2 0  9998
2 25479  45.0046 138.1261 0003241 300.4010  59.6517 14.37043163368864
ORBCOMM FM26            
1 25480U 98053F   24332.99012013  .00003100  00000+0  10996-2 0  9993
2 25480  45.0045 135.7401 0004854 329.7220  30.3347 14.36253259368711
ORBCOMM FM27            
1 25481U 98053G   24333.50767013  .00004781  00000+0  16431-2 0  9995
2 25481  45.0030 138.4275 0001279 187.5388 172.5441 14.37039012368790
ORBCOMM FM28            
1 25482U 98053H   24333.57913931  .00004220  00000+0  14470-2 0  9994
2 25482  45.0054  75.9599 0002803 344.6877  15.3885 14.37348468369485
ORBCOMM FM30            
1 25980U 99065A   24333.41934849  .00004130  00000+0  14437-2 0  9998
2 25980  45.0319 319.4353 0004819  66.9556 293.1800 14.36421131305574
ORBCOMM FM31            
1 25981U 99065B   24333.45644772  .00003582  00000+0  12594-2 0  9998
2 25981  45.0230 312.8294 0001808  89.9605 270.1450 14.36395949305138
ORBCOMM FM32            
1 25982U 99065C   24333.29879587  .00003999  00000+0  14280-2 0  9991
2 25982  45.0157 328.7908 0003584  99.3745 260.7507 14.35420372305729
