<?xml version="1.0" encoding="UTF-8"?>
<ndm xmlns:xsi="http://www.w3.org/2001/XMLSchema-instance" xsi:noNamespaceSchemaLocation="https://sanaregistry.org/r/ndmxml_unqualified/ndmxml-2.0.0-master-2.0.xsd">
<omm id="CCSDS_OMM_VERS" version="2.0">
<header><CREATION_DATE/><ORIGINATOR/></header><body><segment><metadata><OBJECT_NAME>ORBCOMM FM24</OBJECT_NAME><OBJECT_ID>1998-053D</OBJECT_ID><CENTER_NAME>EARTH</CENTER_NAME><REF_FRAME>TEME</REF_FRAME><TIME_SYSTEM>UTC</TIME_SYSTEM><MEAN_ELEMENT_THEORY>SGP4</MEAN_ELEMENT_THEORY></metadata><data><meanElements><EPOCH>2024-11-28T13:11:21.684192</EPOCH><MEAN_MOTION>14.37052590</MEAN_MOTION><ECCENTRICITY>.0001603</ECCENTRICITY><INCLINATION>45.0053</INCLINATION><RA_OF_ASC_NODE>139.7235</RA_OF_ASC_NODE><ARG_OF_PERICENTER>252.2702</ARG_OF_PERICENTER><MEAN_ANOMALY>107.7971</MEAN_ANOMALY></meanElements><tleParameters><EPHEMERIS_TYPE>0</EPHEMERIS_TYPE><CLASSIFICATION_TYPE>U</CLASSIFICATION_TYPE><NORAD_CAT_ID>25478</NORAD_CAT_ID><ELEMENT_SET_NO>999</ELEMENT_SET_NO><REV_AT_EPOCH>36885</REV_AT_EPOCH><BSTAR>.14726E-2</BSTAR><MEAN_MOTION_DOT>.4271E-4</MEAN_MOTION_DOT><MEAN_MOTION_DDOT>0</MEAN_MOTION_DDOT></tleParameters></data></segment></body></omm>
<omm id="CCSDS_OMM_VERS" version="2.0">
<header><CREATION_DATE/><ORIGINATOR/></header><body><segment><metadata><OBJECT_NAME>ORBCOMM FM25</OBJECT_NAME><OBJECT_ID>1998-053E</OBJECT_ID><CENTER_NAME>EARTH</CENTER_NAME><REF_FRAME>TEME</REF_FRAME><TIME_SYSTEM>UTC</TIME_SYSTEM><MEAN_ELEMENT_THEORY>SGP4</MEAN_ELEMENT_THEORY></metadata><data><meanElements><EPOCH>2024-11-28T12:26:01.648032</EPOCH><MEAN_MOTION>14.37043163</MEAN_MOTION><ECCENTRICITY>.0003241</ECCENTRICITY><INCLINATION>45.0046</INCLINATION><RA_OF_ASC_NODE>138.1261</RA_OF_ASC_NODE><ARG_OF_PERICENTER>300.4010</ARG_OF_PERICENTER><MEAN_ANOMALY>59.6517</MEAN_ANOMALY></meanElements><tleParameters><EPHEMERIS_TYPE>0</EPHEMERIS_TYPE><CLASSIFICATION_TYPE>U</CLASSIFICATION_TYPE><NORAD_CAT_ID>25479</NORAD_CAT_ID><ELEMENT_SET_NO>999</ELEMENT_SET_NO><REV_AT_EPOCH>36886</REV_AT_EPOCH><BSTAR>.15205E-2</BSTAR><MEAN_MOTION_DOT>.4414E-4</MEAN_MOTION_DOT><MEAN_MOTION_DDOT>0</MEAN_MOTION_DDOT></tleParameters></data></segment></body></omm>
<omm id="CCSDS_OMM_VERS" version="2.0">
<header><CREATION_DATE/><ORIGINATOR/></header><body><segment><metadata><OBJECT_NAME>ORBCOMM FM26</OBJECT_NAME><OBJECT_ID>1998-053F</OBJECT_ID><CENTER_NAME>EARTH</CENTER_NAME><REF_FRAME>TEME</REF_FRAME><TIME_SYSTEM>UTC</TIME_SYSTEM><MEAN_ELEMENT_THEORY>SGP4</MEAN_ELEMENT_THEORY></metadata><data><meanElements><EPOCH>2024-11-27T23:45:46.379232</EPOCH><MEAN_MOTION>14.36253259</MEAN_MOTION><ECCENTRICITY>.0004854</ECCENTRICITY><INCLINATION>45.0045</INCLINATION><RA_OF_ASC_NODE>135.7401</RA_OF_ASC_NODE><ARG_OF_PERICENTER>329.7220</ARG_OF_PERICENTER><MEAN_ANOMALY>30.3347</MEAN_ANOMALY></meanElements><tleParameters><EPHEMERIS_TYPE>0</EPHEMERIS_TYPE><CLASSIFICATION_TYPE>U</CLASSIFICATION_TYPE><NORAD_CAT_ID>25480</NORAD_CAT_ID><ELEMENT_SET_NO>999</ELEMENT_SET_NO><REV_AT_EPOCH>36871</REV_AT_EPOCH><BSTAR>.10996E-2</BSTAR><MEAN_MOTION_DOT>.31E-4</MEAN_MOTION_DOT><MEAN_MOTION_DDOT>0</MEAN_MOTION_DDOT></tleParameters></data></segment></body></omm>
<omm id="CCSDS_OMM_VERS" version="2.0">
<header><CREATION_DATE/><ORIGINATOR/></header><body><segment><metadata><OBJECT_NAME>ORBCOMM FM27</OBJECT_NAME><OBJECT_ID>1998-053G</OBJECT_ID><CENTER_NAME>EARTH</CENTER_NAME><REF_FRAME>TEME</REF_FRAME><TIME_SYSTEM>UTC</TIME_SYSTEM><MEAN_ELEMENT_THEORY>SGP4</MEAN_ELEMENT_THEORY></metadata><data><meanElements><EPOCH>2024-11-28T12:11:02.699232</EPOCH><MEAN_MOTION>14.37039012</MEAN_MOTION><ECCENTRICITY>.0001279</ECCENTRICITY><INCLINATION>45.0030</INCLINATION><RA_OF_ASC_NODE>138.4275</RA_OF_ASC_NODE><ARG_OF_PERICENTER>187.5388</ARG_OF_PERICENTER><MEAN_ANOMALY>172.5441</MEAN_ANOMALY></meanElements><tleParameters><EPHEMERIS_TYPE>0</EPHEMERIS_TYPE><CLASSIFICATION_TYPE>U</CLASSIFICATION_TYPE><NORAD_CAT_ID>25481</NORAD_CAT_ID><ELEMENT_SET_NO>999</ELEMENT_SET_NO><REV_AT_EPOCH>36879</REV_AT_EPOCH><BSTAR>.16431E-2</BSTAR><MEAN_MOTION_DOT>.4781E-4</MEAN_MOTION_DOT><MEAN_MOTION_DDOT>0</MEAN_MOTION_DDOT></tleParameters></data></segment></body></omm>
<omm id="CCSDS_OMM_VERS" version="2.0">
<header><CREATION_DATE/><ORIGINATOR/></header><body><segment><metadata><OBJECT_NAME>ORBCOMM FM28</OBJECT_NAME><OBJECT_ID>1998-053H</OBJECT_ID><CENTER_NAME>EARTH</CENTER_NAME><REF_FRAME>TEME</REF_FRAME><TIME_SYSTEM>UTC</TIME_SYSTEM><MEAN_ELEMENT_THEORY>SGP4</MEAN_ELEMENT_THEORY></metadata><data><meanElements><EPOCH>2024-11-28T13:53:57.636384</EPOCH><MEAN_MOTION>14.37348468</MEAN_MOTION><ECCENTRICITY>.0002803</ECCENTRICITY><INCLINATION>45.0054</INCLINATION><RA_OF_ASC_NODE>75.9599</RA_OF_ASC_NODE><ARG_OF_PERICENTER>344.6877</ARG_OF_PERICENTER><MEAN_ANOMALY>15.3885</MEAN_ANOMALY></meanElements><tleParameters><EPHEMERIS_TYPE>0</EPHEMERIS_TYPE><CLASSIFICATION_TYPE>U</CLASSIFICATION_TYPE><NORAD_CAT_ID>25482</NORAD_CAT_ID><ELEMENT_SET_NO>999</ELEMENT_SET_NO><REV_AT_EPOCH>36948</REV_AT_EPOCH><BSTAR>.1447E-2</BSTAR><MEAN_MOTION_DOT>.422E-4</MEAN_MOTION_DOT><MEAN_MOTION_DDOT>0</MEAN_MOTION_DDOT></tleParameters></data></segment></body></omm>
<omm id="CCSDS_OMM_VERS" version="2.0">
<header><CREATION_DATE/><ORIGINATOR/></header><body><segment><metadata><OBJECT_NAME>ORBCOMM FM30</OBJECT_NAME><OBJECT_ID>1999-065A</OBJECT_ID><CENTER_NAME>EARTH</CENTER_NAME><REF_FRAME>TEME</REF_FRAME><TIME_SYSTEM>UTC</TIME_SYSTEM><MEAN_ELEMENT_THEORY>SGP4</MEAN_ELEMENT_THEORY></metadata><data><meanElements><EPOCH>2024-11-28T10:03:51.709536</EPOCH><MEAN_MOTION>14.36421131</MEAN_MOTION><ECCENTRICITY>.0004819</ECCENTRICITY><INCLINATION>45.0319</INCLINATION><RA_OF_ASC_NODE>319.4353</RA_OF_ASC_NODE><ARG_OF_PERICENTER>66.9556</ARG_OF_PERICENTER><MEAN_ANOMALY>293.1800</MEAN_ANOMALY></meanElements><tleParameters><EPHEMERIS_TYPE>0</EPHEMERIS_TYPE><CLASSIFICATION_TYPE>U</CLASSIFICATION_TYPE><NORAD_CAT_ID>25980</NORAD_CAT_ID><ELEMENT_SET_NO>999</ELEMENT_SET_NO><REV_AT_EPOCH>30557</REV_AT_EPOCH><BSTAR>.14437E-2</BSTAR><MEAN_MOTION_DOT>.413E-4</MEAN_MOTION_DOT><MEAN_MOTION_DDOT>0</MEAN_MOTION_DDOT></tleParameters></data></segment></body></omm>
<omm id="CCSDS_OMM_VERS" version="2.0">
<header><CREATION_DATE/><ORIGINATOR/></header><body><segment><metadata><OBJECT_NAME>ORBCOMM FM31</OBJECT_NAME><OBJECT_ID>1999-065B</OBJECT_ID><CENTER_NAME>EARTH</CENTER_NAME><REF_FRAME>TEME</REF_FRAME><TIME_SYSTEM>UTC</TIME_SYSTEM><MEAN_ELEMENT_THEORY>SGP4</MEAN_ELEMENT_THEORY></metadata><data><meanElements><EPOCH>2024-11-28T10:57:17.083008</EPOCH><MEAN_MOTION>14.36395949</MEAN_MOTION><ECCENTRICITY>.0001808</ECCENTRICITY><INCLINATION>45.0230</INCLINATION><RA_OF_ASC_NODE>312.8294</RA_OF_ASC_NODE><ARG_OF_PERICENTER>89.9605</ARG_OF_PERICENTER><MEAN_ANOMALY>270.1450</MEAN_ANOMALY></meanElements><tleParameters><EPHEMERIS_TYPE>0</EPHEMERIS_TYPE><CLASSIFICATION_TYPE>U</CLASSIFICATION_TYPE><NORAD_CAT_ID>25981</NORAD_CAT_ID><ELEMENT_SET_NO>999</ELEMENT_SET_NO><REV_AT_EPOCH>30513</REV_AT_EPOCH><BSTAR>.12594E-2</BSTAR><MEAN_MOTION_DOT>.3582E-4</MEAN_MOTION_DOT><MEAN_MOTION_DDOT>0</MEAN_MOTION_DDOT></tleParameters></data></segment></body></omm>
<omm id="CCSDS_OMM_VERS" version="2.0">
<header><CREATION_DATE/><ORIGINATOR/></header><body><segment><metadata><OBJECT_NAME>ORBCOMM FM32</OBJECT_NAME><OBJECT_ID>1999-065C</OBJECT_ID><CENTER_NAME>EARTH</CENTER_NAME><REF_FRAME>TEME</REF_FRAME><TIME_SYSTEM>UTC</TIME_SYSTEM><MEAN_ELEMENT_THEORY>SGP4</MEAN_ELEMENT_THEORY></metadata><data><meanElements><EPOCH>2024-11-28T07:10:15.963168</EPOCH><MEAN_MOTION>14.35420372</MEAN_MOTION><ECCENTRICITY>.0003584</ECCENTRICITY><INCLINATION>45.0157</INCLINATION><RA_OF_ASC_NODE>328.7908</RA_OF_ASC_NODE><ARG_OF_PERICENTER>99.3745</ARG_OF_PERICENTER><MEAN_ANOMALY>260.7507</MEAN_ANOMALY></meanElements><tleParameters><EPHEMERIS_TYPE>0</EPHEMERIS_TYPE><CLASSIFICATION_TYPE>U</CLASSIFICATION_TYPE><NORAD_CAT_ID>25982</NORAD_CAT_ID><ELEMENT_SET_NO>999</ELEMENT_SET_NO><REV_AT_EPOCH>30572</REV_AT_EPOCH><BSTAR>.1428E-2</BSTAR><MEAN_MOTION_DOT>.3999E-4</MEAN_MOTION_DOT><MEAN_MOTION_DDOT>0</MEAN_MOTION_DDOT></tleParameters></data></segment></body></omm>

</ndm>
